{"type": "FeatureCollection", "features": [ {"type": "Feature", "properties": {"norad_id": 66815, "name": "STARLINK-35985", "group": "last-30-days", "lat": 40.675381697450185, "lon": -39.18496606966288, "alt_km": 299.90957452798466, "timestamp": "2025-12-12T11:38:30.171112+00:00", "meta": {"OBJECT_NAME": "STARLINK-35985", "OBJECT_ID": "2025-278AA", "EPOCH": "2025-12-12T03:47:39.585984", "MEAN_MOTION": 15.89290924, "ECCENTRICITY": 0.0001994, "INCLINATION": 42.997, "RA_OF_ASC_NODE": 255.5676, "ARG_OF_PERICENTER": 255.8845, "MEAN_ANOMALY": 104.1808, "EPHEMERIS_TYPE": 0, "CLASSIFICATION_TYPE": "U", "NORAD_CAT_ID": 66815, "ELEMENT_SET_NO": 999, "REV_AT_EPOCH": 295, "BSTAR": -0.0014372, "MEAN_MOTION_DOT": -0.00412454, "MEAN_MOTION_DDOT": 0}, "tle": {"line1": "1 66815U 25278AA  25346.15809706 -.00412454  00000+0 -14372-2 0  9996", "line2": "2 66815  42.9970 255.5676 0001994 255.8845 104.1808 15.89290924  2952"}}, "geometry": {"type": "Point", "coordinates": [-39.18496606966288, 40.675381697450185]}}, {"type": "Feature", "properties": {"norad_id": 66816, "name": "STARLINK-36098", "group": "last-30-days", "lat": 36.93597905968926, "lon": -52.638075822462454, "alt_km": 300.7851825897678, "timestamp": "2025-12-12T11:38:30.171122+00:00", "meta": {"OBJECT_NAME": "STARLINK-36098", "OBJECT_ID": "2025-278AB", "EPOCH": "2025-12-12T03:50:26.818368", "MEAN_MOTION": 15.89251221, "ECCENTRICITY": 0.0002369, "INCLINATION": 42.9976, "RA_OF_ASC_NODE": 255.5842, "ARG_OF_PERICENTER": 250.78, "MEAN_ANOMALY": 109.2818, "EPHEMERIS_TYPE": 0, "CLASSIFICATION_TYPE": "U", "NORAD_CAT_ID": 66816, "ELEMENT_SET_NO": 999, "REV_AT_EPOCH": 174, "BSTAR": -0.0013498, "MEAN_MOTION_DOT": -0.00387718, "MEAN_MOTION_DDOT": 0}, "tle": {"line1": "1 66816U 25278AB  25346.16003262 -.00387718  00000+0 -13498-2 0  9993", "line2": "2 66816  42.9976 255.5842 0002369 250.7800 109.2818 15.89251221  1746"}}, "geometry": {"type": "Point", "coordinates": [-52.638075822462454, 36.93597905968926]}}, {"type": "Feature", "properties": {"norad_id": 66817, "name": "STARLINK-35995", "group": "last-30-days", "lat": 38.93701644230269, "lon": -46.31379728097351, "alt_km": 299.5151225846748, "timestamp": "2025-12-12T11:38:30.171132+00:00", "meta": {"OBJECT_NAME": "STARLINK-35995", "OBJECT_ID": "2025-278AC", "EPOCH": "2025-12-12T02:18:38.873664", "MEAN_MOTION": 15.89436035, "ECCENTRICITY": 0.0002199, "INCLINATION": 42.9976, "RA_OF_ASC_NODE": 255.9665, "ARG_OF_PERICENTER": 295.1269, "MEAN_ANOMALY": 64.9377, "EPHEMERIS_TYPE": 0, "CLASSIFICATION_TYPE": "U", "NORAD_CAT_ID": 66817, "ELEMENT_SET_NO": 999, "REV_AT_EPOCH": 173, "BSTAR": -0.0014442, "MEAN_MOTION_DOT": -0.00417325, "MEAN_MOTION_DDOT": 0}, "tle": {"line1": "1 66817U 25278AC  25346.09628326 -.00417325  00000+0 -14442-2 0  9998", "line2": "2 66817  42.9976 255.9665 0002199 295.1269  64.9377 15.89436035  1731"}}, "geometry": {"type": "Point", "coordinates": [-46.31379728097351, 38.93701644230269]}}, {"type": "Feature", "properties": {"norad_id": 66818, "name": "STARLINK-35994", "group": "last-30-days", "lat": 38.120265697008946, "lon": -49.069974747410456, "alt_km": 299.6928784734364, "timestamp": "2025-12-12T11:38:30.171142+00:00", "meta": {"OBJECT_NAME": "STARLINK-35994", "OBJECT_ID": "2025-278AD", "EPOCH": "2025-12-12T02:19:13.033632", "MEAN_MOTION": 15.89406945, "ECCENTRICITY": 0.0002005, "INCLINATION": 42.9978, "RA_OF_ASC_NODE": 255.9697, "ARG_OF_PERICENTER": 290.2737, "MEAN_ANOMALY": 69.7922, "EPHEMERIS_TYPE": 0, "CLASSIFICATION_TYPE": "U", "NORAD_CAT_ID": 66818, "ELEMENT_SET_NO": 999, "REV_AT_EPOCH": 173, "BSTAR": -0.001447, "MEAN_MOTION_DOT": -0.00417488, "MEAN_MOTION_DDOT": 0}, "tle": {"line1": "1 66818U 25278AD  25346.09667863 -.00417488  00000+0 -14470-2 0  9999", "line2": "2 66818  42.9978 255.9697 0002005 290.2737  69.7922 15.89406945  1737"}}, "geometry": {"type": "Point", "coordinates": [-49.069974747410456, 38.120265697008946]}}, {"type": "Feature", "properties": {"norad_id": 66819, "name": "STARLINK-35989", "group": "last-30-days", "lat": 39.6219013728835, "lon": -43.755640694836394, "alt_km": 299.99026509979103, "timestamp": "2025-12-12T11:38:30.171152+00:00", "meta": {"OBJECT_NAME": "STARLINK-35989", "OBJECT_ID": "2025-278AE", "EPOCH": "2025-12-12T03:48:34.747200", "MEAN_MOTION": 15.89296046, "ECCENTRICITY": 0.0001896, "INCLINATION": 42.9977, "RA_OF_ASC_NODE": 255.5737, "ARG_OF_PERICENTER": 258.334, "MEAN_ANOMALY": 101.7321, "EPHEMERIS_TYPE": 0, "CLASSIFICATION_TYPE": "U", "NORAD_CAT_ID": 66819, "ELEMENT_SET_NO": 999, "REV_AT_EPOCH": 174, "BSTAR": -0.0014661, "MEAN_MOTION_DOT": -0.00420454, "MEAN_MOTION_DDOT": 0}, "tle": {"line1": "1 66819U 25278AE  25346.15873550 -.00420454  00000+0 -14661-2 0  9998", "line2": "2 66819  42.9977 255.5737 0001896 258.3340 101.7321 15.89296046  1740"}}, "geometry": {"type": "Point", "coordinates": [-43.755640694836394, 39.6219013728835]}}, {"type": "Feature", "properties": {"norad_id": 66820, "name": "KOMPSAT-7", "group": "last-30-days", "lat": 51.23339395295893, "lon": -77.26649425999037, "alt_km": 571.4460533645542, "timestamp": "2025-12-12T11:38:30.171165+00:00", "meta": {"OBJECT_NAME": "KOMPSAT-7", "OBJECT_ID": "2025-279A", "EPOCH": "2025-12-11T20:59:29.721120", "MEAN_MOTION": 14.98943536, "ECCENTRICITY": 0.00086806, "INCLINATION": 97.6407, "RA_OF_ASC_NODE": 291.7582, "ARG_OF_PERICENTER": 228.5557, "MEAN_ANOMALY": 131.4921, "EPHEMERIS_TYPE": 0, "CLASSIFICATION_TYPE": "U", "NORAD_CAT_ID": 66820, "ELEMENT_SET_NO": 999, "REV_AT_EPOCH": 152, "BSTAR": 0.00037255576, "MEAN_MOTION_DOT": 4.453e-05, "MEAN_MOTION_DDOT": 0}, "tle": {"line1": "1 66820U 25279A   25345.87464955  .00004453  00000+0  37256-3 0  9995", "line2": "2 66820  97.6407 291.7582 0008680 228.5557 131.4921 14.98943536  1528"}}, "geometry": {"type": "Point", "coordinates": [-77.26649425999037, 51.23339395295893]}}, {"type": "Feature", "properties": {"norad_id": 66821, "name": "STARLINK-35966", "group": "last-30-days", "lat": -3.7287849208401695, "lon": -161.79183330990062, "alt_km": 330.06580084622146, "timestamp": "2025-12-12T11:38:30.171178+00:00", "meta": {"OBJECT_NAME": "STARLINK-35966", "OBJECT_ID": "2025-280A", "EPOCH": "2025-12-12T04:00:01.998720", "MEAN_MOTION": 15.82165629, "ECCENTRICITY": 0.000391, "INCLINATION": 69.9928, "RA_OF_ASC_NODE": 200.4794, "ARG_OF_PERICENTER": 278.1506, "MEAN_ANOMALY": 65.7558, "EPHEMERIS_TYPE": 0, "CLASSIFICATION_TYPE": "U", "NORAD_CAT_ID": 66821, "ELEMENT_SET_NO": 999, "REV_AT_EPOCH": 280, "BSTAR": -0.009207, "MEAN_MOTION_DOT": -0.01651526, "MEAN_MOTION_DDOT": 0}, "tle": {"line1": "1 66821U 25280A   25346.16668980 -.01651526  00000+0 -92070-2 0  9991", "line2": "2 66821  69.9928 200.4794 0003910 278.1506  65.7558 15.82165629  2807"}}, "geometry": {"type": "Point", "coordinates": [-161.79183330990062, -3.7287849208401695]}}, {"type": "Feature", "properties": {"norad_id": 66822, "name": "STARLINK-35958", "group": "last-30-days", "lat": -1.9440047045936633, "lon": -161.1418553531303, "alt_km": 330.03559377283, "timestamp": "2025-12-12T11:38:30.171188+00:00", "meta": {"OBJECT_NAME": "STARLINK-35958", "OBJECT_ID": "2025-280B", "EPOCH": "2025-12-12T04:00:01.998720", "MEAN_MOTION": 15.82187042, "ECCENTRICITY": 0.000405, "INCLINATION": 69.9929, "RA_OF_ASC_NODE": 200.4773, "ARG_OF_PERICENTER": 274.3275, "MEAN_ANOMALY": 71.4523, "EPHEMERIS_TYPE": 0, "CLASSIFICATION_TYPE": "U", "NORAD_CAT_ID": 66822, "ELEMENT_SET_NO": 999, "REV_AT_EPOCH": 280, "BSTAR": -0.0092055, "MEAN_MOTION_DOT": -0.01652908, "MEAN_MOTION_DDOT": 0}, "tle": {"line1": "1 66822U 25280B   25346.16668980 -.01652908  00000+0 -92055-2 0  9990", "line2": "2 66822  69.9929 200.4773 0004050 274.3275  71.4523 15.82187042  2802"}}, "geometry": {"type": "Point", "coordinates": [-161.1418553531303, -1.9440047045936633]}}, {"type": "Feature", "properties": {"norad_id": 66823, "name": "STARLINK-35957", "group": "last-30-days", "lat": -0.09318325085028181, "lon": -160.46969542559268, "alt_km": 329.7889029737007, "timestamp": "2025-12-12T11:38:30.171198+00:00", "meta": {"OBJECT_NAME": "STARLINK-35957", "OBJECT_ID": "2025-280C", "EPOCH": "2025-12-12T04:00:01.998720", "MEAN_MOTION": 15.82213243, "ECCENTRICITY": 0.0003952, "INCLINATION": 69.9928, "RA_OF_ASC_NODE": 200.4748, "ARG_OF_PERICENTER": 275.8185, "MEAN_ANOMALY": 71.9108, "EPHEMERIS_TYPE": 0, "CLASSIFICATION_TYPE": "U", "NORAD_CAT_ID": 66823, "ELEMENT_SET_NO": 999, "REV_AT_EPOCH": 280, "BSTAR": -0.009316, "MEAN_MOTION_DOT": -0.01671787, "MEAN_MOTION_DDOT": 0}, "tle": {"line1": "1 66823U 25280C   25346.16668980 -.01671787  00000+0 -93160-2 0  9995", "line2": "2 66823  69.9928 200.4748 0003952 275.8185  71.9108 15.82213243  2807"}}, "geometry": {"type": "Point", "coordinates": [-160.46969542559268, -0.09318325085028181]}}, {"type": "Feature", "properties": {"norad_id": 66824, "name": "STARLINK-35896", "group": "last-30-days", "lat": 1.8266268010435047, "lon": -159.7723288771024, "alt_km": 329.85859474565495, "timestamp": "2025-12-12T11:38:30.171241+00:00", "meta": {"OBJECT_NAME": "STARLINK-35896", "OBJECT_ID": "2025-280D", "EPOCH": "2025-12-12T04:00:01.998720", "MEAN_MOTION": 15.82230742, "ECCENTRICITY": 0.000378, "INCLINATION": 69.9928, "RA_OF_ASC_NODE": 200.4724, "ARG_OF_PERICENTER": 270.5144, "MEAN_ANOMALY": 79.2467, "EPHEMERIS_TYPE": 0, "CLASSIFICATION_TYPE": "U", "NORAD_CAT_ID": 66824, "ELEMENT_SET_NO": 999, "REV_AT_EPOCH": 280, "BSTAR": -0.0094077, "MEAN_MOTION_DOT": -0.01687037, "MEAN_MOTION_DDOT": 0}, "tle": {"line1": "1 66824U 25280D   25346.16668980 -.01687037  00000+0 -94077-2 0  9999", "line2": "2 66824  69.9928 200.4724 0003780 270.5144  79.2467 15.82230742  2800"}}, "geometry": {"type": "Point", "coordinates": [-159.7723288771024, 1.8266268010435047]}}]}